{"type": "FeatureCollection", "features": [ {"type": "Feature", "properties": {"norad_id": 66950, "name": "STARLINK-36111", "group": "last-30-days", "lat": -4.067506972078944, "lon": -25.85351929533355, "alt_km": 415.2476843363047, "timestamp": "2025-12-27T11:23:18.580891+00:00", "meta": {"OBJECT_NAME": "STARLINK-36111", "OBJECT_ID": "2025-286AB", "EPOCH": "2025-12-27T04:00:01.998720", "MEAN_MOTION": 15.52342253, "ECCENTRICITY": 9.41e-05, "INCLINATION": 53.1594, "RA_OF_ASC_NODE": 338.6802, "ARG_OF_PERICENTER": 98.602, "MEAN_ANOMALY": 335.8748, "EPHEMERIS_TYPE": 0, "CLASSIFICATION_TYPE": "U", "NORAD_CAT_ID": 66950, "ELEMENT_SET_NO": 999, "REV_AT_EPOCH": 430, "BSTAR": -0.034751, "MEAN_MOTION_DOT": -0.01932764, "MEAN_MOTION_DDOT": 0}, "tle": {"line1": "1 66950U 25286AB  25361.16668980 -.01932764  00000+0 -34751-1 0  9994", "line2": "2 66950  53.1594 338.6802 0000941  98.6020 335.8748 15.52342253  4301"}}, "geometry": {"type": "Point", "coordinates": [-25.85351929533355, -4.067506972078944]}}, {"type": "Feature", "properties": {"norad_id": 66951, "name": "STARLINK-35999", "group": "last-30-days", "lat": -2.5354385054009967, "lon": -24.703874006581458, "alt_km": 415.17072235835894, "timestamp": "2025-12-27T11:23:18.580903+00:00", "meta": {"OBJECT_NAME": "STARLINK-35999", "OBJECT_ID": "2025-286AC", "EPOCH": "2025-12-27T04:00:01.998720", "MEAN_MOTION": 15.52339586, "ECCENTRICITY": 9.31e-05, "INCLINATION": 53.1594, "RA_OF_ASC_NODE": 338.6762, "ARG_OF_PERICENTER": 110.7278, "MEAN_ANOMALY": 325.6675, "EPHEMERIS_TYPE": 0, "CLASSIFICATION_TYPE": "U", "NORAD_CAT_ID": 66951, "ELEMENT_SET_NO": 999, "REV_AT_EPOCH": 431, "BSTAR": -0.034716, "MEAN_MOTION_DOT": -0.01930824, "MEAN_MOTION_DDOT": 0}, "tle": {"line1": "1 66951U 25286AC  25361.16668980 -.01930824  00000+0 -34716-1 0  9991", "line2": "2 66951  53.1594 338.6762 0000931 110.7278 325.6675 15.52339586  4319"}}, "geometry": {"type": "Point", "coordinates": [-24.703874006581458, -2.5354385054009967]}}, {"type": "Feature", "properties": {"norad_id": 66952, "name": "STARLINK-36122", "group": "last-30-days", "lat": -5.598694791991952, "lon": -27.00817339667318, "alt_km": 415.53066373972797, "timestamp": "2025-12-27T11:23:18.580915+00:00", "meta": {"OBJECT_NAME": "STARLINK-36122", "OBJECT_ID": "2025-286AD", "EPOCH": "2025-12-27T04:00:01.998720", "MEAN_MOTION": 15.52331732, "ECCENTRICITY": 9.07e-05, "INCLINATION": 53.1597, "RA_OF_ASC_NODE": 338.6841, "ARG_OF_PERICENTER": 107.2433, "MEAN_ANOMALY": 325.3196, "EPHEMERIS_TYPE": 0, "CLASSIFICATION_TYPE": "U", "NORAD_CAT_ID": 66952, "ELEMENT_SET_NO": 999, "REV_AT_EPOCH": 430, "BSTAR": -0.034405, "MEAN_MOTION_DOT": -0.01881089, "MEAN_MOTION_DDOT": 0}, "tle": {"line1": "1 66952U 25286AD  25361.16668980 -.01881089  00000+0 -34405-1 0  9995", "line2": "2 66952  53.1597 338.6841 0000907 107.2433 325.3196 15.52331732  4307"}}, "geometry": {"type": "Point", "coordinates": [-27.00817339667318, -5.598694791991952]}}, {"type": "Feature", "properties": {"norad_id": 66953, "name": "HULIANWANG DIGUI-114", "group": "last-30-days", "lat": -55.258903678535624, "lon": -24.268120215937248, "alt_km": 1025.9780926848025, "timestamp": "2025-12-27T11:23:18.580925+00:00", "meta": {"OBJECT_NAME": "HULIANWANG DIGUI-114", "OBJECT_ID": "2025-287A", "EPOCH": "2025-12-20T09:09:14.655168", "MEAN_MOTION": 13.66161866, "ECCENTRICITY": 0.00096738, "INCLINATION": 86.496, "RA_OF_ASC_NODE": 343.3747, "ARG_OF_PERICENTER": 185.0352, "MEAN_ANOMALY": 175.071, "EPHEMERIS_TYPE": 0, "CLASSIFICATION_TYPE": "U", "NORAD_CAT_ID": 66953, "ELEMENT_SET_NO": 999, "REV_AT_EPOCH": 157, "BSTAR": 3.033618e-06, "MEAN_MOTION_DOT": 1.9e-07, "MEAN_MOTION_DDOT": 0}, "tle": {"line1": "1 66953U 25287A   25354.38141962  .00000019  00000+0  30336-5 0  9995", "line2": "2 66953  86.4960 343.3747 0009673 185.0352 175.0710 13.66161866  1572"}}, "geometry": {"type": "Point", "coordinates": [-24.268120215937248, -55.258903678535624]}}, {"type": "Feature", "properties": {"norad_id": 66954, "name": "HULIANWANG DIGUI-115", "group": "last-30-days", "lat": -86.26965727365888, "lon": -88.84950679072968, "alt_km": 1032.7773691483262, "timestamp": "2025-12-27T11:23:18.580935+00:00", "meta": {"OBJECT_NAME": "HULIANWANG DIGUI-115", "OBJECT_ID": "2025-287B", "EPOCH": "2025-12-24T22:10:56.489088", "MEAN_MOTION": 13.63539042, "ECCENTRICITY": 0.0003385, "INCLINATION": 86.5036, "RA_OF_ASC_NODE": 341.7372, "ARG_OF_PERICENTER": 109.9724, "MEAN_ANOMALY": 250.1798, "EPHEMERIS_TYPE": 0, "CLASSIFICATION_TYPE": "U", "NORAD_CAT_ID": 66954, "ELEMENT_SET_NO": 999, "REV_AT_EPOCH": 219, "BSTAR": 8.442119e-06, "MEAN_MOTION_DOT": 2.3e-07, "MEAN_MOTION_DDOT": 0}, "tle": {"line1": "1 66954U 25287B   25358.92426492  .00000023  00000+0  84421-5 0  9993", "line2": "2 66954  86.5036 341.7372 0003385 109.9724 250.1798 13.63539042  2198"}}, "geometry": {"type": "Point", "coordinates": [-88.84950679072968, -86.26965727365888]}}, {"type": "Feature", "properties": {"norad_id": 66955, "name": "HULIANWANG DIGUI-116", "group": "last-30-days", "lat": -70.07624476324861, "lon": -28.95558046820687, "alt_km": 1028.964279219871, "timestamp": "2025-12-27T11:23:18.580945+00:00", "meta": {"OBJECT_NAME": "HULIANWANG DIGUI-116", "OBJECT_ID": "2025-287C", "EPOCH": "2025-12-24T23:52:55.515936", "MEAN_MOTION": 13.64194122, "ECCENTRICITY": 0.00016332, "INCLINATION": 86.4919, "RA_OF_ASC_NODE": 341.6856, "ARG_OF_PERICENTER": 94.3011, "MEAN_ANOMALY": 265.8333, "EPHEMERIS_TYPE": 0, "CLASSIFICATION_TYPE": "U", "NORAD_CAT_ID": 66955, "ELEMENT_SET_NO": 999, "REV_AT_EPOCH": 220, "BSTAR": 0.0001652864, "MEAN_MOTION_DOT": 1.48e-06, "MEAN_MOTION_DDOT": 0}, "tle": {"line1": "1 66955U 25287C   25358.99508699  .00000148  00000+0  16529-3 0  9991", "line2": "2 66955  86.4919 341.6856 0001633  94.3011 265.8333 13.64194122  2201"}}, "geometry": {"type": "Point", "coordinates": [-28.95558046820687, -70.07624476324861]}}, {"type": "Feature", "properties": {"norad_id": 66956, "name": "HULIANWANG DIGUI-117", "group": "last-30-days", "lat": -52.88524678501718, "lon": -23.841090410244686, "alt_km": 1026.4600180235693, "timestamp": "2025-12-27T11:23:18.580955+00:00", "meta": {"OBJECT_NAME": "HULIANWANG DIGUI-117", "OBJECT_ID": "2025-287D", "EPOCH": "2025-12-24T22:03:29.281824", "MEAN_MOTION": 13.64670553, "ECCENTRICITY": 0.00010447, "INCLINATION": 86.4976, "RA_OF_ASC_NODE": 341.7257, "ARG_OF_PERICENTER": 103.5815, "MEAN_ANOMALY": 256.5458, "EPHEMERIS_TYPE": 0, "CLASSIFICATION_TYPE": "U", "NORAD_CAT_ID": 66956, "ELEMENT_SET_NO": 999, "REV_AT_EPOCH": 219, "BSTAR": 9.025962e-06, "MEAN_MOTION_DOT": 2.4e-07, "MEAN_MOTION_DDOT": 0}, "tle": {"line1": "1 66956U 25287D   25358.91908891  .00000024  00000+0  90260-5 0  9991", "line2": "2 66956  86.4976 341.7257 0001044 103.5815 256.5458 13.64670553  2192"}}, "geometry": {"type": "Point", "coordinates": [-23.841090410244686, -52.88524678501718]}}, {"type": "Feature", "properties": {"norad_id": 66957, "name": "HULIANWANG DIGUI-118", "group": "last-30-days", "lat": 3.7360369834478613, "lon": -18.98361280158758, "alt_km": 1014.4117832926413, "timestamp": "2025-12-27T11:23:18.580965+00:00", "meta": {"OBJECT_NAME": "HULIANWANG DIGUI-118", "OBJECT_ID": "2025-287E", "EPOCH": "2025-12-21T00:50:13.849728", "MEAN_MOTION": 13.6751011, "ECCENTRICITY": 0.00054729, "INCLINATION": 86.4946, "RA_OF_ASC_NODE": 343.1304, "ARG_OF_PERICENTER": 170.9065, "MEAN_ANOMALY": 189.2194, "EPHEMERIS_TYPE": 0, "CLASSIFICATION_TYPE": "U", "NORAD_CAT_ID": 66957, "ELEMENT_SET_NO": 999, "REV_AT_EPOCH": 166, "BSTAR": 0.00013223305, "MEAN_MOTION_DOT": 1.28e-06, "MEAN_MOTION_DDOT": 0}, "tle": {"line1": "1 66957U 25287E   25355.03488252  .00000128  00000+0  13223-3 0  9993", "line2": "2 66957  86.4946 343.1304 0005472 170.9065 189.2194 13.67510110  1668"}}, "geometry": {"type": "Point", "coordinates": [-18.98361280158758, 3.7360369834478613]}}, {"type": "Feature", "properties": {"norad_id": 66958, "name": "CZ-6A R/B", "group": "last-30-days", "lat": -26.63221875318661, "lon": -21.256215872146164, "alt_km": 908.7419023306247, "timestamp": "2025-12-27T11:23:18.580975+00:00", "meta": {"OBJECT_NAME": "CZ-6A R/B", "OBJECT_ID": "2025-287F", "EPOCH": "2025-12-26T23:27:51.481152", "MEAN_MOTION": 13.94921923, "ECCENTRICITY": 0.01070558, "INCLINATION": 86.5066, "RA_OF_ASC_NODE": 340.6879, "ARG_OF_PERICENTER": 59.3506, "MEAN_ANOMALY": 301.8169, "EPHEMERIS_TYPE": 0, "CLASSIFICATION_TYPE": "U", "NORAD_CAT_ID": 66958, "ELEMENT_SET_NO": 999, "REV_AT_EPOCH": 252, "BSTAR": 7.5983134e-05, "MEAN_MOTION_DOT": 1.26e-06, "MEAN_MOTION_DDOT": 0}, "tle": {"line1": "1 66958U 25287F   25360.97767918  .00000126  00000+0  75983-4 0  9992", "line2": "2 66958  86.5066 340.6879 0107055  59.3506 301.8169 13.94921923  2520"}}, "geometry": {"type": "Point", "coordinates": [-21.256215872146164, -26.63221875318661]}}, {"type": "Feature", "properties": {"norad_id": 66959, "name": "STARLINK-35887", "group": "last-30-days", "lat": -15.895317810431022, "lon": -84.52687759115418, "alt_km": 401.0440836906855, "timestamp": "2025-12-27T11:23:18.580989+00:00", "meta": {"OBJECT_NAME": "STARLINK-35887", "OBJECT_ID": "2025-288A", "EPOCH": "2025-12-27T04:00:01.998720", "MEAN_MOTION": 15.5718951, "ECCENTRICITY": 0.0001405, "INCLINATION": 42.9997, "RA_OF_ASC_NODE": 79.4959, "ARG_OF_PERICENTER": 267.2651, "MEAN_ANOMALY": 9.3846, "EPHEMERIS_TYPE": 0, "CLASSIFICATION_TYPE": "U", "NORAD_CAT_ID": 66959, "ELEMENT_SET_NO": 999, "REV_AT_EPOCH": 414, "BSTAR": -0.030742, "MEAN_MOTION_DOT": -0.02049559, "MEAN_MOTION_DDOT": 0}, "tle": {"line1": "1 66959U 25288A   25361.16668980 -.02049559  00000+0 -30742-1 0  9993", "line2": "2 66959  42.9997  79.4959 0001405 267.2651   9.3846 15.57189510  4140"}}, "geometry": {"type": "Point", "coordinates": [-84.52687759115418, -15.895317810431022]}}]}